[{"OBJECT_NAME":"STARLINK-32898","OBJECT_ID":"2025-031T","EPOCH":"2026-03-09T05:44:22.777728","MEAN_MOTION":15.27602836,"ECCENTRICITY":8.797e-5,"INCLINATION":42.9981,"RA_OF_ASC_NODE":146.1123,"ARG_OF_PERICENTER":235.4187,"MEAN_ANOMALY":124.6582,"EPHEMERIS_TYPE":0,"CLASSIFICATION_TYPE":"U","NORAD_CAT_ID":62998,"ELEMENT_SET_NO":999,"REV_AT_EPOCH":6102,"BSTAR":0.0012203172,"MEAN_MOTION_DOT":0.00033494,"MEAN_MOTION_DDOT":0},{"OBJECT_NAME":"HERMES-2","OBJECT_ID":"2025-052AK","EPOCH":"2026-03-09T22:17:00.130272","MEAN_MOTION":15.28021069,"ECCENTRICITY":0.00063399,"INCLINATION":97.4004,"RA_OF_ASC_NODE":324.4926,"ARG_OF_PERICENTER":99.416,"MEAN_ANOMALY":260.7796,"EPHEMERIS_TYPE":0,"CLASSIFICATION_TYPE":"U","NORAD_CAT_ID":63243,"ELEMENT_SET_NO":999,"REV_AT_EPOCH":5485,"BSTAR":0.00034839454,"MEAN_MOTION_DOT":9.456e-5,"MEAN_MOTION_DDOT":0}]
